start=new Date('2022-06-10T00:00:00.000Z').valueOf();
sats=[{"EPOCH":"2022-06-09T14:31:28.887744","SITE":"AFETR","ECCENTRICITY":"0.00014690","TIME_SYSTEM":"UTC","SEMIMAJOR_AXIS":"6925.397","OBJECT_NAME":"STARLINK-1027","CENTER_NAME":"EARTH","APOAPSIS":"548.279","MEAN_ANOMALY":"299.6108","MEAN_MOTION_DOT":"-0.00002018","MEAN_MOTION_DDOT":"0.0000000000000","TLE_LINE1":"1 44732U 19074V   22160.60519546 -.00002018  00000-0 -11668-3 0  9996","CLASSIFICATION_TYPE":"U","MEAN_ELEMENT_THEORY":"SGP4","FILE":"3489040","ARG_OF_PERICENTER":"60.5027","OBJECT_ID":"2019-074V","BSTAR":"-0.00011668000000","EPHEMERIS_TYPE":"0","LAUNCH_DATE":"2019-11-11","RCS_SIZE":"LARGE","MEAN_MOTION":"15.06384267","GP_ID":"205777865","COUNTRY_CODE":"US","RA_OF_ASC_NODE":"232.6721","DECAY_DATE":null,"PERIAPSIS":"546.244","INCLINATION":"53.0550","REV_AT_EPOCH":"14211","NORAD_CAT_ID":"44732","REF_FRAME":"TEME","TLE_LINE2":"2 44732  53.0550 232.6721 0001469  60.5027 299.6108 15.06384267142119","ELEMENT_SET_NO":"999","OBJECT_TYPE":"PAYLOAD","PERIOD":"95.593"},{"TLE_LINE2":"2 44733  53.0535 211.4927 0001844  54.0748 306.0412 15.06384548142439","REF_FRAME":"TEME","NORAD_CAT_ID":"44733","INCLINATION":"53.0535","REV_AT_EPOCH":"14243","PERIOD":"95.593","OBJECT_TYPE":"PAYLOAD","ELEMENT_SET_NO":"999","COUNTRY_CODE":"US","GP_ID":"205778115","MEAN_MOTION":"15.06384548","RCS_SIZE":"LARGE","DECAY_DATE":null,"PERIAPSIS":"545.984","RA_OF_ASC_NODE":"211.4927","BSTAR":"-0.00002377200000","EPHEMERIS_TYPE":"0","OBJECT_ID":"2019-074W","ARG_OF_PERICENTER":"54.0748","LAUNCH_DATE":"2019-11-11","CLASSIFICATION_TYPE":"U","TLE_LINE1":"1 44733U 19074W   22160.86874667 -.00000636  00000-0 -23772-4 0  9997","MEAN_ELEMENT_THEORY":"SGP4","FILE":"3489040","MEAN_MOTION_DOT":"-0.00000636","MEAN_MOTION_DDOT":"0.0000000000000","SEMIMAJOR_AXIS":"6925.396","APOAPSIS":"548.538","MEAN_ANOMALY":"306.0412","CENTER_NAME":"EARTH","OBJECT_NAME":"STARLINK-1028","ECCENTRICITY":"0.00018440","SITE":"AFETR","EPOCH":"2022-06-09T20:50:59.712288","TIME_SYSTEM":"UTC"},{"BSTAR":"-0.00015132000000","OBJECT_ID":"2019-074X","EPHEMERIS_TYPE":"0","ARG_OF_PERICENTER":"54.2476","LAUNCH_DATE":"2019-11-11","GP_ID":"205778867","COUNTRY_CODE":"US","MEAN_MOTION":"15.06394140","RCS_SIZE":"LARGE","RA_OF_ASC_NODE":"132.6256","DECAY_DATE":null,"PERIAPSIS":"545.917","INCLINATION":"53.0551","REV_AT_EPOCH":"14349","TLE_LINE2":"2 44734  53.0551 132.6256 0001898  54.2476 305.8690 15.06394140143497","NORAD_CAT_ID":"44734","REF_FRAME":"TEME","ELEMENT_SET_NO":"999","PERIOD":"95.593","OBJECT_TYPE":"PAYLOAD","EPOCH":"2022-06-09T14:50:03.231744","SITE":"AFETR","ECCENTRICITY":"0.00018980","TIME_SYSTEM":"UTC","SEMIMAJOR_AXIS":"6925.367","CENTER_NAME":"EARTH","OBJECT_NAME":"STARLINK-1029","MEAN_ANOMALY":"305.8690","APOAPSIS":"548.546","MEAN_MOTION_DOT":"-0.00002535","MEAN_MOTION_DDOT":"0.0000000000000","TLE_LINE1":"1 44734U 19074X   22160.61809296 -.00002535  00000-0 -15132-3 0  9997","CLASSIFICATION_TYPE":"U","FILE":"3489040","MEAN_ELEMENT_THEORY":"SGP4"},{"ECCENTRICITY":"0.00016000","SITE":"AFETR","EPOCH":"2022-06-09T14:42:06.045408","TIME_SYSTEM":"UTC","SEMIMAJOR_AXIS":"6925.428","APOAPSIS":"548.401","MEAN_ANOMALY":"292.8500","OBJECT_NAME":"STARLINK-1030","CENTER_NAME":"EARTH","MEAN_MOTION_DOT":"0.00002083","MEAN_MOTION_DDOT":"0.0000000000000","CLASSIFICATION_TYPE":"U","TLE_LINE1":"1 44735U 19074Y   22160.61256997  .00002083  00000-0  15877-3 0  9994","MEAN_ELEMENT_THEORY":"SGP4","FILE":"3489040","ARG_OF_PERICENTER":"67.2658","EPHEMERIS_TYPE":"0","BSTAR":"0.00015877000000","OBJECT_ID":"2019-074Y","LAUNCH_DATE":"2019-11-11","RCS_SIZE":"LARGE","GP_ID":"205779618","COUNTRY_CODE":"US","MEAN_MOTION":"15.06374231","DECAY_DATE":null,"PERIAPSIS":"546.184","RA_OF_ASC_NODE":"232.6449","REF_FRAME":"TEME","NORAD_CAT_ID":"44735","TLE_LINE2":"2 44735  53.0582 232.6449 0001600  67.2658 292.8500 15.06374231142116","REV_AT_EPOCH":"14211","INCLINATION":"53.0582","OBJECT_TYPE":"PAYLOAD","PERIOD":"95.594","ELEMENT_SET_NO":"999"},{"RCS_SIZE":"LARGE","GP_ID":"205747369","MEAN_MOTION":"15.06393035","COUNTRY_CODE":"US","DECAY_DATE":null,"PERIAPSIS":"546.247","RA_OF_ASC_NODE":"233.1856","REF_FRAME":"TEME","NORAD_CAT_ID":"44736","TLE_LINE2":"2 44736  53.0536 233.1856 0001427  57.6754 302.4372 15.06393035142276","REV_AT_EPOCH":"14227","INCLINATION":"53.0536","OBJECT_TYPE":"PAYLOAD","PERIOD":"95.593","ELEMENT_SET_NO":"999","ARG_OF_PERICENTER":"57.6754","BSTAR":"0.00001130600000","EPHEMERIS_TYPE":"0","OBJECT_ID":"2019-074Z","LAUNCH_DATE":"2019-11-11","MEAN_MOTION_DOT":"-0.00000113","MEAN_MOTION_DDOT":"0.0000000000000","CLASSIFICATION_TYPE":"U","TLE_LINE1":"1 44736U 19074Z   22160.49460636 -.00000113  00000-0  11306-4 0  9995","MEAN_ELEMENT_THEORY":"SGP4","FILE":"3488536","SITE":"AFETR","ECCENTRICITY":"0.00014270","EPOCH":"2022-06-09T11:52:13.989504","TIME_SYSTEM":"UTC","SEMIMAJOR_AXIS":"6925.370","MEAN_ANOMALY":"302.4372","APOAPSIS":"548.223","OBJECT_NAME":"STARLINK-1031","CENTER_NAME":"EARTH"},{"COUNTRY_CODE":"US","GP_ID":"205733695","MEAN_MOTION":"15.06391130","RCS_SIZE":"LARGE","RA_OF_ASC_NODE":"233.1359","PERIAPSIS":"546.067","DECAY_DATE":null,"INCLINATION":"53.0538","REV_AT_EPOCH":"14210","TLE_LINE2":"2 44737  53.0538 233.1359 0001695  61.8817 298.2343 15.06391130142107","REF_FRAME":"TEME","NORAD_CAT_ID":"44737","ELEMENT_SET_NO":"999","PERIOD":"95.593","OBJECT_TYPE":"PAYLOAD","BSTAR":"-0.00004554200000","EPHEMERIS_TYPE":"0","OBJECT_ID":"2019-074AA","ARG_OF_PERICENTER":"61.8817","LAUNCH_DATE":"2019-11-11","MEAN_MOTION_DOT":"-0.00000960","MEAN_MOTION_DDOT":"0.0000000000000","TLE_LINE1":"1 44737U 19074AA  22160.50566228 -.00000960  00000-0 -45542-4 0  9992","CLASSIFICATION_TYPE":"U","FILE":"3488214","MEAN_ELEMENT_THEORY":"SGP4","EPOCH":"2022-06-09T12:08:09.220992","ECCENTRICITY":"0.00016950","SITE":"AFETR","TIME_SYSTEM":"UTC","SEMIMAJOR_AXIS":"6925.376","CENTER_NAME":"EARTH","OBJECT_NAME":"STARLINK-1032","MEAN_ANOMALY":"298.2343","APOAPSIS":"548.415"},{"ARG_OF_PERICENTER":"57.4421","BSTAR":"-0.00005652000000","OBJECT_ID":"2019-074AB","EPHEMERIS_TYPE":"0","LAUNCH_DATE":"2019-11-11","RCS_SIZE":"LARGE","MEAN_MOTION":"15.06398445","GP_ID":"205779368","COUNTRY_CODE":"US","RA_OF_ASC_NODE":"231.4123","DECAY_DATE":null,"PERIAPSIS":"546.027","INCLINATION":"53.0546","REV_AT_EPOCH":"14215","REF_FRAME":"TEME","NORAD_CAT_ID":"44738","TLE_LINE2":"2 44738  53.0546 231.4123 0001720  57.4421 302.6734 15.06398445142153","ELEMENT_SET_NO":"999","OBJECT_TYPE":"PAYLOAD","PERIOD":"95.592","EPOCH":"2022-06-09T21:20:09.612960","ECCENTRICITY":"0.00017200","SITE":"AFETR","TIME_SYSTEM":"UTC","SEMIMAJOR_AXIS":"6925.353","OBJECT_NAME":"STARLINK-1033","CENTER_NAME":"EARTH","APOAPSIS":"548.409","MEAN_ANOMALY":"302.6734","MEAN_MOTION_DOT":"-0.00001123","MEAN_MOTION_DDOT":"0.0000000000000","TLE_LINE1":"1 44738U 19074AB  22160.88900015 -.00001123  00000-0 -56520-4 0  9990","CLASSIFICATION_TYPE":"U","FILE":"3489040","MEAN_ELEMENT_THEORY":"SGP4"},{"NORAD_CAT_ID":"44739","REF_FRAME":"TEME","TLE_LINE2":"2 44739  52.9950 221.4082 0002013   0.4137 359.6856 15.14352309142258","REV_AT_EPOCH":"14225","INCLINATION":"52.9950","OBJECT_TYPE":"PAYLOAD","PERIOD":"95.090","ELEMENT_SET_NO":"999","RCS_SIZE":"LARGE","MEAN_MOTION":"15.14352309","GP_ID":"205779118","COUNTRY_CODE":"US","DECAY_DATE":null,"PERIAPSIS":"521.558","RA_OF_ASC_NODE":"221.4082","ARG_OF_PERICENTER":"0.4137","BSTAR":"0.00059882000000","OBJECT_ID":"2019-074AC","EPHEMERIS_TYPE":"0","LAUNCH_DATE":"2019-11-11","CLASSIFICATION_TYPE":"U","TLE_LINE1":"1 44739U 19074AC  22160.89630853  .00010821  00000-0  59882-3 0  9998","MEAN_ELEMENT_THEORY":"SGP4","FILE":"3489040","MEAN_MOTION_DOT":"0.00010821","MEAN_MOTION_DDOT":"0.0000000000000","SEMIMAJOR_AXIS":"6901.083","APOAPSIS":"524.337","MEAN_ANOMALY":"359.6856","OBJECT_NAME":"STARLINK-1034","CENTER_NAME":"EARTH","SITE":"AFETR","ECCENTRICITY":"0.00020130","EPOCH":"2022-06-09T21:30:41.056992","TIME_SYSTEM":"UTC"},{"REV_AT_EPOCH":"14227","INCLINATION":"53.0559","REF_FRAME":"TEME","NORAD_CAT_ID":"44740","TLE_LINE2":"2 44740  53.0559 233.1502 0001657  62.8828 297.2330 15.06387568142278","ELEMENT_SET_NO":"999","OBJECT_TYPE":"PAYLOAD","PERIOD":"95.593","RCS_SIZE":"LARGE","COUNTRY_CODE":"US","GP_ID":"205747354","MEAN_MOTION":"15.06387568","RA_OF_ASC_NODE":"233.1502","DECAY_DATE":null,"PERIAPSIS":"546.104","ARG_OF_PERICENTER":"62.8828","BSTAR":"-0.00002344000000","EPHEMERIS_TYPE":"0","OBJECT_ID":"2019-074AD","LAUNCH_DATE":"2019-11-11","TLE_LINE1":"1 44740U 19074AD  22160.50198023 -.00000631  00000-0 -23440-4 0  9998","CLASSIFICATION_TYPE":"U","MEAN_ELEMENT_THEORY":"SGP4","FILE":"3488565","MEAN_MOTION_DOT":"-0.00000631","MEAN_MOTION_DDOT":"0.0000000000000","SEMIMAJOR_AXIS":"6925.387","OBJECT_NAME":"STARLINK-1035","CENTER_NAME":"EARTH","MEAN_ANOMALY":"297.2330","APOAPSIS":"548.399","EPOCH":"2022-06-09T12:02:51.091872","ECCENTRICITY":"0.00016570","SITE":"AFETR","TIME_SYSTEM":"UTC"},{"ARG_OF_PERICENTER":"68.3539","BSTAR":"-0.00011124000000","OBJECT_ID":"2019-074AE","EPHEMERIS_TYPE":"0","LAUNCH_DATE":"2019-11-11","REF_FRAME":"TEME","NORAD_CAT_ID":"44741","TLE_LINE2":"2 44741  53.0539 232.1944 0001516  68.3539 291.7611 15.06382628142307","INCLINATION":"53.0539","REV_AT_EPOCH":"14230","OBJECT_TYPE":"PAYLOAD","PERIOD":"95.593","ELEMENT_SET_NO":"999","RCS_SIZE":"LARGE","GP_ID":"205747897","COUNTRY_CODE":"US","MEAN_MOTION":"15.06382628","PERIAPSIS":"546.217","DECAY_DATE":null,"RA_OF_ASC_NODE":"232.1944","SEMIMAJOR_AXIS":"6925.402","APOAPSIS":"548.317","MEAN_ANOMALY":"291.7611","OBJECT_NAME":"STARLINK-1036","CENTER_NAME":"EARTH","ECCENTRICITY":"0.00015160","SITE":"AFETR","EPOCH":"2022-06-09T17:05:24.124128","TIME_SYSTEM":"UTC","CLASSIFICATION_TYPE":"U","TLE_LINE1":"1 44741U 19074AE  22160.71208477 -.00001937  00000-0 -11124-3 0  9992","MEAN_ELEMENT_THEORY":"SGP4","FILE":"3488538","MEAN_MOTION_DOT":"-0.00001937","MEAN_MOTION_DDOT":"0.0000000000000"}];
